{
    "links": {
        "self": "http://www.neowsapp.com/rest/v1/neo/3802078?api_key=iIulBulltgU6a56xZRHN4H3l9WmuAYTsLGpBGhQ2"
    },
    "id": "3802078",
    "neo_reference_id": "3802078",
    "name": "(2018 FL4)",
    "designation": "2018 FL4",
    "nasa_jpl_url": "http://ssd.jpl.nasa.gov/sbdb.cgi?sstr=3802078",
    "absolute_magnitude_h": 23.9,
    "estimated_diameter": {
        "kilometers": {
            "estimated_diameter_min": 0.04411182,
            "estimated_diameter_max": 0.0986370281
        },
        "meters": {
            "estimated_diameter_min": 44.1118199997,
            "estimated_diameter_max": 98.6370281305
        },
        "miles": {
            "estimated_diameter_min": 0.0274098057,
            "estimated_diameter_max": 0.0612901888
        },
        "feet": {
            "estimated_diameter_min": 144.7238235278,
            "estimated_diameter_max": 323.6123073718
        }
    },
    "is_potentially_hazardous_asteroid": false,
    "close_approach_data": [
        {
            "close_approach_date": "1963-04-06",
            "close_approach_date_full": "1963-Apr-06 02:33",
            "epoch_date_close_approach": -212707620000,
            "relative_velocity": {
                "kilometers_per_second": "17.8882316038",
                "kilometers_per_hour": "64397.6337736339",
                "miles_per_hour": "40014.1852745116"
            },
            "miss_distance": {
                "astronomical": "0.3113344704",
                "lunar": "121.1091089856",
                "kilometers": "46574973.629418048",
                "miles": "28940346.6316151424"
            },
            "orbiting_body": "Earth"
        },
        {
            "close_approach_date": "2018-03-12",
            "close_approach_date_full": "2018-Mar-12 20:22",
            "epoch_date_close_approach": 1520886120000,
            "relative_velocity": {
                "kilometers_per_second": "10.0142751661",
                "kilometers_per_hour": "36051.3905980687",
                "miles_per_hour": "22400.9321191166"
            },
            "miss_distance": {
                "astronomical": "0.0308003988",
                "lunar": "11.9813551332",
                "kilometers": "4607674.055630556",
                "miles": "2863075.8955754328"
            },
            "orbiting_body": "Earth"
        },
        {
            "close_approach_date": "2021-12-12",
            "close_approach_date_full": "2021-Dec-12 15:59",
            "epoch_date_close_approach": 1639324740000,
            "relative_velocity": {
                "kilometers_per_second": "21.7928238169",
                "kilometers_per_hour": "78454.1657409973",
                "miles_per_hour": "48748.3675961214"
            },
            "miss_distance": {
                "astronomical": "0.3764249249",
                "lunar": "146.4292957861",
                "kilometers": "56312366.979949963",
                "miles": "34990882.2925689694"
            },
            "orbiting_body": "Earth"
        },
        {
            "close_approach_date": "2088-04-15",
            "close_approach_date_full": "2088-Apr-15 03:13",
            "epoch_date_close_approach": 3732837180000,
            "relative_velocity": {
                "kilometers_per_second": "20.2872776376",
                "kilometers_per_hour": "73034.1994952974",
                "miles_per_hour": "45380.6113475085"
            },
            "miss_distance": {
                "astronomical": "0.3302499683",
                "lunar": "128.4672376687",
                "kilometers": "49404691.825247521",
                "miles": "30698651.9848009498"
            },
            "orbiting_body": "Earth"
        },
        {
            "close_approach_date": "2092-01-09",
            "close_approach_date_full": "2092-Jan-09 07:52",
            "epoch_date_close_approach": 3850703520000,
            "relative_velocity": {
                "kilometers_per_second": "11.2804536626",
                "kilometers_per_hour": "40609.6331853816",
                "miles_per_hour": "25233.2467978834"
            },
            "miss_distance": {
                "astronomical": "0.0427711795",
                "lunar": "16.6379888255",
                "kilometers": "6398477.350587665",
                "miles": "3975829.463993177"
            },
            "orbiting_body": "Earth"
        }
    ],
    "orbital_data": {
        "orbit_id": "7",
        "orbit_determination_date": "2018-04-27 06:51:58",
        "first_observation_date": "2018-03-19",
        "last_observation_date": "2018-04-20",
        "data_arc_in_days": 32,
        "observations_used": 42,
        "orbit_uncertainty": "7",
        "minimum_orbit_intersection": ".0155989",
        "jupiter_tisserand_invariant": "3.182",
        "epoch_osculation": "2459000.5",
        "eccentricity": ".6195126060608251",
        "semi_major_axis": "2.477869158040139",
        "inclination": "2.907124922855277",
        "ascending_node_longitude": "134.7963116080436",
        "orbital_period": "1424.675585669412",
        "perihelion_distance": ".9427979784649501",
        "perihelion_argument": "7.974020633186607",
        "aphelion_distance": "4.012940337615329",
        "perihelion_time": "2459593.485743897542",
        "mean_anomaly": "210.1589625382611",
        "mean_motion": ".2526891059418603",
        "equinox": "J2000",
        "orbit_class": {
            "orbit_class_type": "APO",
            "orbit_class_description": "Near-Earth asteroid orbits which cross the Earth’s orbit similar to that of 1862 Apollo",
            "orbit_class_range": "a (semi-major axis) > 1.0 AU; q (perihelion) < 1.017 AU"
        }
    },
    "is_sentry_object": false
}